start=new Date('2022-07-15T00:00:00.000Z').valueOf();
sats=[{"RCS_SIZE":"LARGE","COUNTRY_CODE":"US","GP_ID":"208134669","MEAN_MOTION_DDOT":"0.0000000000000","SEMIMAJOR_AXIS":"6925.388","MEAN_MOTION_DOT":"0.00000455","PERIAPSIS":"546.451","OBJECT_NAME":"STARLINK-2428","INCLINATION":"53.0555","MEAN_MOTION":"15.06387235","ELEMENT_SET_NO":"999","CLASSIFICATION_TYPE":"U","TLE_LINE2":"2 48099  53.0555  39.4426 0001158  83.5397 276.5724 15.06387235 71374","REV_AT_EPOCH":"7137","APOAPSIS":"548.055","OBJECT_ID":"2021-027H","EPOCH":"2022-07-14T20:31:30.274464","OBJECT_TYPE":"PAYLOAD","CENTER_NAME":"EARTH","TLE_LINE1":"1 48099U 21027H   22195.85521151  .00000455  00000-0  49452-4 0  9991","EPHEMERIS_TYPE":"0","REF_FRAME":"TEME","RA_OF_ASC_NODE":"39.4426","ECCENTRICITY":"0.00011580","BSTAR":"0.00004945200000","TIME_SYSTEM":"UTC","LAUNCH_DATE":"2021-04-07","DECAY_DATE":null,"MEAN_ANOMALY":"276.5724","SITE":"AFETR","NORAD_CAT_ID":"48099","MEAN_ELEMENT_THEORY":"SGP4","PERIOD":"95.593","ARG_OF_PERICENTER":"83.5397","FILE":"3513976"},{"MEAN_MOTION_DOT":"-0.00002442","PERIAPSIS":"546.256","OBJECT_NAME":"STARLINK-2430","INCLINATION":"53.0572","SEMIMAJOR_AXIS":"6925.380","MEAN_MOTION_DDOT":"0.0000000000000","COUNTRY_CODE":"US","RCS_SIZE":"LARGE","GP_ID":"208133423","CENTER_NAME":"EARTH","TLE_LINE1":"1 48100U 21027J   22195.81651290 -.00002442  00000-0 -14515-3 0  9999","EPHEMERIS_TYPE":"0","OBJECT_TYPE":"PAYLOAD","REF_FRAME":"TEME","OBJECT_ID":"2021-027J","EPOCH":"2022-07-14T19:35:46.714560","APOAPSIS":"548.234","CLASSIFICATION_TYPE":"U","TLE_LINE2":"2 48100  53.0572  19.6203 0001428  83.1818 276.9333 15.06389769 71658","MEAN_MOTION":"15.06389769","ELEMENT_SET_NO":"999","REV_AT_EPOCH":"7165","TIME_SYSTEM":"UTC","LAUNCH_DATE":"2021-04-07","BSTAR":"-0.00014515000000","RA_OF_ASC_NODE":"19.6203","ECCENTRICITY":"0.00014280","FILE":"3513976","ARG_OF_PERICENTER":"83.1818","PERIOD":"95.593","SITE":"AFETR","NORAD_CAT_ID":"48100","MEAN_ELEMENT_THEORY":"SGP4","MEAN_ANOMALY":"276.9333","DECAY_DATE":null},{"COUNTRY_CODE":"US","RCS_SIZE":"LARGE","GP_ID":"208133673","MEAN_MOTION_DDOT":"0.0000000000000","SEMIMAJOR_AXIS":"6925.396","MEAN_MOTION_DOT":"-0.00001450","PERIAPSIS":"546.244","INCLINATION":"53.0554","OBJECT_NAME":"STARLINK-2436","CLASSIFICATION_TYPE":"U","TLE_LINE2":"2 48101  53.0554  29.6977 0001468  83.8078 276.3078 15.06384636 71510","ELEMENT_SET_NO":"999","MEAN_MOTION":"15.06384636","REV_AT_EPOCH":"7151","APOAPSIS":"548.277","OBJECT_ID":"2021-027K","EPOCH":"2022-07-14T19:11:51.851616","CENTER_NAME":"EARTH","TLE_LINE1":"1 48101U 21027K   22195.79990569 -.00001450  00000-0 -78514-4 0  9990","EPHEMERIS_TYPE":"0","OBJECT_TYPE":"PAYLOAD","REF_FRAME":"TEME","ECCENTRICITY":"0.00014680","RA_OF_ASC_NODE":"29.6977","BSTAR":"-0.00007851400000","TIME_SYSTEM":"UTC","LAUNCH_DATE":"2021-04-07","DECAY_DATE":null,"MEAN_ANOMALY":"276.3078","PERIOD":"95.593","SITE":"AFETR","NORAD_CAT_ID":"48101","MEAN_ELEMENT_THEORY":"SGP4","FILE":"3513976","ARG_OF_PERICENTER":"83.8078"},{"BSTAR":"-0.00011479000000","LAUNCH_DATE":"2021-04-07","TIME_SYSTEM":"UTC","ECCENTRICITY":"0.00015610","RA_OF_ASC_NODE":"19.5082","SITE":"AFETR","NORAD_CAT_ID":"48102","MEAN_ELEMENT_THEORY":"SGP4","PERIOD":"95.593","FILE":"3513976","ARG_OF_PERICENTER":"94.8065","DECAY_DATE":null,"MEAN_ANOMALY":"265.3103","SEMIMAJOR_AXIS":"6925.367","PERIAPSIS":"546.151","INCLINATION":"53.0552","OBJECT_NAME":"STARLINK-2437","MEAN_MOTION_DOT":"-0.00001991","GP_ID":"208134423","RCS_SIZE":"LARGE","COUNTRY_CODE":"US","MEAN_MOTION_DDOT":"0.0000000000000","EPOCH":"2022-07-14T20:12:55.199520","OBJECT_ID":"2021-027L","REF_FRAME":"TEME","OBJECT_TYPE":"PAYLOAD","TLE_LINE1":"1 48102U 21027L   22195.84230555 -.00001991  00000-0 -11479-3 0  9995","CENTER_NAME":"EARTH","EPHEMERIS_TYPE":"0","REV_AT_EPOCH":"7165","ELEMENT_SET_NO":"999","MEAN_MOTION":"15.06393942","CLASSIFICATION_TYPE":"U","TLE_LINE2":"2 48102  53.0552  19.5082 0001561  94.8065 265.3103 15.06393942 71658","APOAPSIS":"548.313"},{"FILE":"3513976","ARG_OF_PERICENTER":"79.1424","NORAD_CAT_ID":"48103","SITE":"AFETR","MEAN_ELEMENT_THEORY":"SGP4","PERIOD":"95.592","MEAN_ANOMALY":"280.9704","DECAY_DATE":null,"LAUNCH_DATE":"2021-04-07","TIME_SYSTEM":"UTC","BSTAR":"-0.00003401700000","ECCENTRICITY":"0.00012330","RA_OF_ASC_NODE":"19.4688","REF_FRAME":"TEME","OBJECT_TYPE":"PAYLOAD","TLE_LINE1":"1 48103U 21027M   22195.85241818 -.00000788  00000-0 -34017-4 0  9998","EPHEMERIS_TYPE":"0","CENTER_NAME":"EARTH","EPOCH":"2022-07-14T20:27:28.930752","OBJECT_ID":"2021-027M","APOAPSIS":"548.069","REV_AT_EPOCH":"7165","ELEMENT_SET_NO":"999","MEAN_MOTION":"15.06399409","CLASSIFICATION_TYPE":"U","TLE_LINE2":"2 48103  53.0566  19.4688 0001233  79.1424 280.9704 15.06399409 71650","OBJECT_NAME":"STARLINK-2438","PERIAPSIS":"546.361","INCLINATION":"53.0566","MEAN_MOTION_DOT":"-0.00000788","SEMIMAJOR_AXIS":"6925.350","MEAN_MOTION_DDOT":"0.0000000000000","GP_ID":"208135170","COUNTRY_CODE":"US","RCS_SIZE":"LARGE"},{"ECCENTRICITY":"0.00014210","RA_OF_ASC_NODE":"24.7150","LAUNCH_DATE":"2021-04-07","TIME_SYSTEM":"UTC","BSTAR":"-0.00008914800000","MEAN_ANOMALY":"267.3883","DECAY_DATE":null,"ARG_OF_PERICENTER":"92.7268","FILE":"3513976","PERIOD":"95.593","SITE":"AFETR","NORAD_CAT_ID":"48104","MEAN_ELEMENT_THEORY":"SGP4","MEAN_MOTION_DDOT":"0.0000000000000","GP_ID":"208133923","COUNTRY_CODE":"US","RCS_SIZE":"LARGE","INCLINATION":"53.0539","PERIAPSIS":"546.262","OBJECT_NAME":"STARLINK-2439","MEAN_MOTION_DOT":"-0.00001609","SEMIMAJOR_AXIS":"6925.381","APOAPSIS":"548.230","REV_AT_EPOCH":"7158","CLASSIFICATION_TYPE":"U","TLE_LINE2":"2 48104  53.0539  24.7150 0001421  92.7268 267.3883 15.06389526 71588","MEAN_MOTION":"15.06389526","ELEMENT_SET_NO":"999","REF_FRAME":"TEME","EPHEMERIS_TYPE":"0","TLE_LINE1":"1 48104U 21027N   22195.79576557 -.00001609  00000-0 -89148-4 0  9991","CENTER_NAME":"EARTH","OBJECT_TYPE":"PAYLOAD","EPOCH":"2022-07-14T19:05:54.145248","OBJECT_ID":"2021-027N"},{"REV_AT_EPOCH":"7232","ELEMENT_SET_NO":"999","MEAN_MOTION":"15.06401739","CLASSIFICATION_TYPE":"U","TLE_LINE2":"2 48105  53.0544 330.4253 0000823  80.0066 280.1016 15.06401739 72322","APOAPSIS":"547.778","EPOCH":"2022-07-14T15:17:00.348576","OBJECT_ID":"2021-027P","REF_FRAME":"TEME","OBJECT_TYPE":"PAYLOAD","TLE_LINE1":"1 48105U 21027P   22195.63680959  .00002249  00000-0  16982-3 0  9991","EPHEMERIS_TYPE":"0","CENTER_NAME":"EARTH","GP_ID":"208134174","COUNTRY_CODE":"US","RCS_SIZE":"LARGE","MEAN_MOTION_DDOT":"0.0000000000000","SEMIMAJOR_AXIS":"6925.343","PERIAPSIS":"546.638","INCLINATION":"53.0544","OBJECT_NAME":"STARLINK-2440","MEAN_MOTION_DOT":"0.00002249","DECAY_DATE":null,"MEAN_ANOMALY":"280.1016","SITE":"AFETR","NORAD_CAT_ID":"48105","MEAN_ELEMENT_THEORY":"SGP4","PERIOD":"95.592","ARG_OF_PERICENTER":"80.0066","FILE":"3513976","RA_OF_ASC_NODE":"330.4253","ECCENTRICITY":"0.00008230","BSTAR":"0.00016982000000","LAUNCH_DATE":"2021-04-07","TIME_SYSTEM":"UTC"},{"EPOCH":"2022-07-14T19:41:04.808256","OBJECT_ID":"2021-027Q","REF_FRAME":"TEME","EPHEMERIS_TYPE":"0","TLE_LINE1":"1 48106U 21027Q   22195.82019454 -.00003628  00000-0 -22488-3 0  9991","CENTER_NAME":"EARTH","OBJECT_TYPE":"PAYLOAD","REV_AT_EPOCH":"7165","CLASSIFICATION_TYPE":"U","TLE_LINE2":"2 48106  53.0551  19.6135 0001496  90.9421 269.1739 15.06388177 71652","MEAN_MOTION":"15.06388177","ELEMENT_SET_NO":"999","APOAPSIS":"548.286","SEMIMAJOR_AXIS":"6925.385","OBJECT_NAME":"STARLINK-2442","PERIAPSIS":"546.214","INCLINATION":"53.0551","MEAN_MOTION_DOT":"-0.00003628","GP_ID":"208134924","COUNTRY_CODE":"US","RCS_SIZE":"LARGE","MEAN_MOTION_DDOT":"0.0000000000000","PERIOD":"95.593","MEAN_ELEMENT_THEORY":"SGP4","SITE":"AFETR","NORAD_CAT_ID":"48106","FILE":"3513976","ARG_OF_PERICENTER":"90.9421","DECAY_DATE":null,"MEAN_ANOMALY":"269.1739","BSTAR":"-0.00022488000000","LAUNCH_DATE":"2021-04-07","TIME_SYSTEM":"UTC","ECCENTRICITY":"0.00014960","RA_OF_ASC_NODE":"19.6135"},{"PERIOD":"95.592","NORAD_CAT_ID":"48107","SITE":"AFETR","MEAN_ELEMENT_THEORY":"SGP4","FILE":"3513976","ARG_OF_PERICENTER":"101.1878","DECAY_DATE":null,"MEAN_ANOMALY":"258.9275","BSTAR":"-0.00003213100000","TIME_SYSTEM":"UTC","LAUNCH_DATE":"2021-04-07","RA_OF_ASC_NODE":"19.5340","ECCENTRICITY":"0.00014600","OBJECT_ID":"2021-027R","EPOCH":"2022-07-14T20:02:17.945088","TLE_LINE1":"1 48107U 21027R   22195.83492992 -.00000760  00000-0 -32131-4 0  9996","EPHEMERIS_TYPE":"0","CENTER_NAME":"EARTH","OBJECT_TYPE":"PAYLOAD","REF_FRAME":"TEME","CLASSIFICATION_TYPE":"U","TLE_LINE2":"2 48107  53.0569  19.5340 0001460 101.1878 258.9275 15.06401303 71659","ELEMENT_SET_NO":"999","MEAN_MOTION":"15.06401303","REV_AT_EPOCH":"7165","APOAPSIS":"548.221","SEMIMAJOR_AXIS":"6925.345","MEAN_MOTION_DOT":"-0.00000760","PERIAPSIS":"546.198","OBJECT_NAME":"STARLINK-2443","INCLINATION":"53.0569","COUNTRY_CODE":"US","RCS_SIZE":"LARGE","GP_ID":"208134670","MEAN_MOTION_DDOT":"0.0000000000000"},{"APOAPSIS":"548.362","REV_AT_EPOCH":"7150","MEAN_MOTION":"15.06379416","ELEMENT_SET_NO":"999","CLASSIFICATION_TYPE":"U","TLE_LINE2":"2 48108  53.0553  29.6565 0001567  89.5146 270.6022 15.06379416 71503","REF_FRAME":"TEME","OBJECT_TYPE":"PAYLOAD","TLE_LINE1":"1 48108U 21027S   22195.80821788 -.00000769  00000-0 -32720-4 0  9996","CENTER_NAME":"EARTH","EPHEMERIS_TYPE":"0","EPOCH":"2022-07-14T19:23:50.024832","OBJECT_ID":"2021-027S","MEAN_MOTION_DDOT":"0.0000000000000","GP_ID":"208133424","RCS_SIZE":"LARGE","COUNTRY_CODE":"US","INCLINATION":"53.0553","PERIAPSIS":"546.191","OBJECT_NAME":"STARLINK-2444","MEAN_MOTION_DOT":"-0.00000769","SEMIMAJOR_AXIS":"6925.412","MEAN_ANOMALY":"270.6022","DECAY_DATE":null,"FILE":"3513976","ARG_OF_PERICENTER":"89.5146","NORAD_CAT_ID":"48108","SITE":"AFETR","MEAN_ELEMENT_THEORY":"SGP4","PERIOD":"95.593","ECCENTRICITY":"0.00015670","RA_OF_ASC_NODE":"29.6565","LAUNCH_DATE":"2021-04-07","TIME_SYSTEM":"UTC","BSTAR":"-0.00003272000000"}];
